FENGYUN 1C DEB          
1 29954U 99025KC  17345.70605697  .00000303  00000-0  15282-3 0  9991
2 29954 100.1351 244.0784 0088082 104.6083 256.4877 14.23106416565316
